ONEWEB-0668             
1 56711U 23068B   24172.92570185  .00000145  00000+0  34555-3 0  9996
2 56711  87.9090  13.3628 0001218  75.4557 284.6709 13.16595061 56917
ONEWEB-0676             
1 56712U 23068C   24172.98190234  .00000053  00000+0  10576-3 0  9991
2 56712  87.9097  13.3574 0002204 100.9713 259.1665 13.16593230 56845
ONEWEB-0677             
1 56713U 23068D   24172.67988539  .00000025  00000+0  28708-4 0  9997
2 56713  87.9203  59.0182 0001711  89.2926 270.8403 13.20768696 54601
ONEWEB-0678             
1 56714U 23068E   24172.66039250 -.00000023  00000+0 -96411-4 0  9990
2 56714  87.9042  43.7444 0002183  80.5458 279.5919 13.15548962 54460
ONEWEB-0679             
1 56715U 23068F   24172.57105471  .00000023  00000+0  25765-4 0  9992
2 56715  87.9097  13.4426 0001304 106.9194 253.2080 13.16596593 56115
ONEWEB-0681             
1 56717U 23068H   24172.57339132  .00000037  00000+0  57087-4 0  9994
2 56717  87.9285  28.6426 0002539 111.3681 248.7724 13.21825416 55091
ONEWEB-0682             
1 56718U 23068J   24172.68654791  .00000657  00000+0  17112-2 0  9999
2 56718  87.9039  43.7810 0001303  82.1954 277.9324 13.15544048 54631
